full_name,spec_B,diameter,epoch,a,e,i,om,w,ma,moid
" 25330 (1999 KV4)",B,3.21,2458600.5,1.540307569724888,.3708082865037192,14.32846816156422,50.60305329888392,85.98864696880061,178.1981911580046,.172981
" 35107 (1991 VH)",Sk,0.908,2458600.5,1.137453251160994,.1442544541943361,13.91042622956074,139.3565098122205,206.9420795001718,275.3676535718642,.026301
" 36183 (1999 TX16)",Ld,2.339,2458600.5,1.551242307121444,.3323472321608562,38.22366361146468,54.66505626719263,311.1933252695391,68.23814350100125,.135102
" 40267 (1999 GJ4)",Sq,1.641,2458600.5,1.338678873411164,.8083211591872037,34.49021009497896,148.2291934195281,211.9308714791042,203.947399186822,.156663
" 48603 (1995 BC2)",X,0.844,2458600.5,1.917303942802563,.4303565469233048,5.02496584780249,328.2878360961319,81.75578630703201,80.65476103329212,.135685
" 53319 (1999 JM8)",X:,7.,2458600.5,2.725979376406261,.6414391767577775,13.83471487425225,133.6226756751557,166.7837396392239,150.3630311186807,.0247197
" 54686 (2001 DU8)",S,1.349,2458600.5,1.776656889435333,.3419499413418508,33.20317153378952,161.7130706742345,265.9327556947545,294.9827160507421,.433381
" 55532 (2001 WG2)",Sk,1.306,2458600.5,1.794424390163156,.6956881561284414,38.51538828017289,81.47575484674054,132.3488338997016,34.15772522143058,.33788
" 65679 (1989 UQ)",B,0.918,2456419.5,.9151005839936155,.2647316079764361,1.299319042532019,178.2454146714581,14.89537420756274,167.2036952829648,.0139803
" 65803 Didymos (1996 GT)",Xk,0.78,2458600.5,1.644267944704789,.3840204904781526,3.408561576582074,73.20707875073758,319.3188820727824,124.6176912105528,.0397774
" 66391 Moshup (1999 KW4)",S:,1.317,2458600.5,.6421955962832231,.6887202273468748,38.88256473407696,244.9096147427467,192.6184318473152,68.08613723958405,.0130854
" 85774 (1998 UT18)",C,0.939,2458600.5,1.403031194844624,.3288960456933744,13.59059329698941,64.66206794480782,50.08058333720575,72.50944345860887,.0360268
" 85818 (1998 XM4)",S,2.028,2458600.5,1.656553125396505,.4164952300584032,62.71724403393061,235.6533316143311,301.2690067349147,101.9535099392483,.108574
" 85953 (1999 FK21)",S,0.59,2455909.5,.7387518911755993,.7031259071017093,12.6015368014283,180.5316908436608,172.3379698479975,276.4826808851835,.070643
" 85989 (1999 JD6)",K,1.462,2458600.5,.8831210737421944,.6329129434994598,17.05839857882794,130.1836507004987,309.2118641498776,123.0729076763922,.048097
" 86039 (1999 NC43)",Q,2.22,2458600.5,1.759457493226104,.5794373132945332,7.124811118549705,311.7445470451361,120.6356902832576,93.15308034290395,.0246205
" 86326 (1999 WK13)",S,1.348,2458600.5,1.844586909559876,.3624438548059424,34.31174974856465,78.46392184802096,312.5560323596225,283.0709406205733,.280091
" 86819 (2000 GK137)",Sq,0.802,2458600.5,1.995599962359925,.5058408162521497,10.06065062821977,164.9085561352562,150.2681757320978,233.3734376121018,.0165887
" 86829 (2000 GR146)",S:,1.433,2458600.5,1.462894742518617,.5750985045994624,14.38385431873038,78.51636546878132,31.32819560755704,319.209434133038,.203496
" 89355 (2001 VS78)",S,2.038,2458600.5,1.786970919509234,.3082181053347741,22.6668206127496,103.1052348227944,84.94819864670632,59.56910385380689,.444759
" 96590 (1998 XB)",S:,0.882,2458600.5,.9078676694738637,.3511785769924831,13.60476443658718,75.711890377106,202.7040320147904,39.0608800591463,.113986
" 99907 (1989 VA)",Sq,1.4,2454967.5,.7285167297403931,.5946513032809143,28.79482842456692,225.6194639944951,2.818046419116314,311.2167868781794,.155294
"100926 (1998 MQ)",S,1.174,2458600.5,1.782854096446524,.4076111799157716,24.24346687742399,221.1140254634194,138.7704148409313,221.5873034392394,.129454
"137062 (1998 WM)",Sq,1.265,2458600.5,1.22461211731564,.3153397625819944,22.51538704117759,45.64509789206803,172.5409939186268,256.2059840415931,.168562
"137805 (1999 YK5)",X,3.879,2458600.5,.8293945011560397,.5583078720821879,16.74650284286326,349.5618824467775,292.839098810912,.8141508669588949,.114081
"152679 (1998 KU2)",Cb,4.692,2458600.5,2.251530091074135,.5525425286601051,4.926743157784012,205.7671085874148,120.2433292915078,38.73997656661245,.0600285
"152931 (2000 EA107)",Q,1.646,2458600.5,.9297583816975237,.4557259432271408,28.57903644496349,52.89694016814674,278.0103559307681,298.5015613637217,.161775
"152978 (2000 GJ147)",S:,0.531,2458600.5,1.162147716325445,.2366616048841237,25.00720537890907,57.87141243526155,240.796326497654,.754728335106426,.0256529
"153201 (2000 WO107)",X,0.510,2458600.5,.9115351760110958,.7806841882623806,7.770972173234761,69.25502083541213,213.7115870647982,113.4465043546998,.00307529
"162998 (2001 SK162)",T,0.875,2458600.5,1.92605586867466,.474403800866053,1.681001867106202,285.3750983091733,186.3793812566828,163.82197654612,.0293707
"175706 (1996 FG3)",C,1.196,2458600.5,1.053846743177246,.3496826090567573,1.991129470129869,299.6860716475834,24.05205752941965,11.26130620266359,.0283416
"194268 (2001 UY4)",X,1.244,2458600.5,1.452897251117182,.7875270112223444,5.436833702784078,160.7808806143993,107.7174283925816,28.77301225686872,.0261373
"219071 (1997 US9)",Q,0.657,2458600.5,1.052749734036685,.2820407285361034,20.01809090052703,212.2158759223882,357.3783873666484,152.4937861103924,.249018
"350513 (2000 BG19)",X,1.77,2458600.5,2.657805071715192,.5610945469761091,12.57236987630621,147.5592085961079,79.62053776536632,127.8262807916983,.277888
"380188 (2000 WC67)",X,1.312,2458600.5,2.692196322216304,.5736377693452462,9.998968026164832,251.7592274489424,249.356502545117,42.12343281297886,.232789
"399433 (2001 YK4)",X:,1.339,2458600.5,2.656465695650243,.7763975353476691,4.376209297633403,155.6876405312112,210.8255451231347,17.3000650182341,.064345
"401857 (2000 PG3)",D,4.2,2458600.5,2.823572846103545,.8556804749511292,22.0147760516616,323.6225585737459,141.1523793152832,310.0994728333131,.210137
"413038 (2001 MF1)",Sk,1.237,2458600.5,2.650707732820037,.5766072874984089,23.97324905384153,288.6363842619909,76.54984575956469,27.36703919560596,.34243
"       (2002 BM26)",X,0.84,2458600.5,1.832546035582321,.4441478394334414,16.21114952126223,319.6359568836098,180.445015825349,335.7655204194787,.0324616
